ONEWEB-0687             
1 61595U 24188B   25344.45344579 -.00000320  00000+0 -85646-3 0  9996
2 61595  87.9100  43.4267 0001378 118.9745 241.1524 13.17649884 61044
ONEWEB-0688             
1 61596U 24188C   25344.40620284  .00000005  00000+0 -21077-4 0  9990
2 61596  87.9101  43.4367 0002389 133.3786 226.7544 13.17647905 61038
ONEWEB-0689             
1 61597U 24188D   25344.20367558  .00000555  00000+0  15304-2 0  9994
2 61597  87.8849  58.6685 0001360 105.6779 254.4499 13.11418205 59688
ONEWEB-0690             
1 61598U 24188E   25344.44273617  .00000398  00000+0  10860-2 0  9990
2 61598  87.8871  58.6332 0002413  95.4530 264.6873 13.11417595 59897
ONEWEB-0691             
1 61599U 24188F   25344.51394341  .00000613  00000+0  16922-2 0  9992
2 61599  87.8837  58.5213 0001715 118.6217 241.5084 13.11423094 59755
ONEWEB-0692             
1 61600U 24188G   25344.45798852 -.00000226  00000+0 -67447-3 0  9994
2 61600  87.8856  58.6763 0001322  70.8189 289.3082 13.11414630 59733
ONEWEB-0693             
1 61601U 24188H   25344.41803551  .00000027  00000+0  35843-4 0  9997
2 61601  87.9106  43.4538 0002592  99.3623 260.7801 13.17649281 61029
ONEWEB-0695             
1 61602U 24188J   25344.51055938  .00000610  00000+0  16863-2 0  9994
2 61602  87.8858  58.6546 0001140  95.6382 264.4876 13.11417820 59733
